IRIDIUM 112             
1 41925U 17003J   25272.75742907  .00000485  00000+0  16611-3 0  9995
2 41925  86.4036 197.0839 0002124  91.3309 268.8130 14.34216833455941
IRIDIUM 111             
1 41926U 17003K   25272.74474831  .00000065  00000+0  16216-4 0  9999
2 41926  86.4032 197.1541 0002282  82.0684 278.0770 14.34217997455920
IRIDIUM 113             
1 42803U 17039A   25271.88748676  .00000137  00000+0  41778-4 0  9999
2 42803  86.3925  71.3844 0002050  96.1352 264.0078 14.34218905433736
IRIDIUM 123             
1 42804U 17039B   25272.62665196  .00000017  00000+0 -98484-6 0  9994
2 42804  86.3916 102.5794 0002361  85.3798 274.7668 14.34218287432608
IRIDIUM 120             
1 42805U 17039C   25271.88114654 -.00000010  00000+0 -10504-4 0  9999
2 42805  86.3915  71.2034 0001982  81.9841 278.1580 14.34217108433722
IRIDIUM 115             
1 42806U 17039D   25271.87997420  .00000345  00000+0  96500-4 0  9998
2 42806  86.4454  71.2966 0002743  83.3164 276.8349 14.43279734436573
IRIDIUM 118             
1 42807U 17039E   25271.89091318 -.00000024  00000+0 -15781-4 0  9990
2 42807  86.3916 102.8862 0001945  94.6010 265.5408 14.34217235432496
IRIDIUM 117             
1 42808U 17039F   25272.04947843 -.00000016  00000+0 -12778-4 0  9996
2 42808  86.3915 102.7799 0002217  88.0762 272.0688 14.34217600432543
